{"type":"FeatureCollection","crs":{"type":"name","properties":{"name":"urn:ogc:def:crs:EPSG::3857"}},"features":[{"type":"Feature","properties":{"id":"buenos_aires","name":"Buenos Aires","area_km2":307388},"geometry":{"type":"MultiPolygon","coordinates":[[[[-60.25055,-33.25966],[-60.06065,-33.43243],[-59.83265,-33.52114],[-59.81605,-33.58452],[-59.67888,-33.61701],[-59.61971,-33.68929],[-59.52183,-33.63067],[-59.44238,-33.72848],[-59.25637,-33.71776],[-59.23627,-33.80299],[-59.18627,-33.79897],[-59.13134,-33.84211],[-59.00697,-33.83328],[-58.85055,-33.93948],[-58.76444,-33.94245],[-58.65939,-34.03822],[-58.49586,-34.00629],[-58.37212,-34.02355],[-58.37262,-34.18443],[-58.41211,-34.25937],[-58.53582,-34.26064],[-58.55571,-34.29117],[-58.48546,-34.34556],[-58.54291,-34.43791],[-58.46213,-34.53438],[-58.50111,-34.55365],[-58.52953,-34.65909],[-58.46227,-34.70861],[-58.33518,-34.63532],[-58.18715,-34.74537],[-58.01896,-34.77823],[-57.94669,-34.83437],[-57.88428,-34.83073],[-57.50731,-35.03033],[-57.23145,-35.26506],[-57.12342,-35.44112],[-57.34742,-35.71729],[-57.38725,-35.82776],[-57.37967,-35.96987],[-57.27983,-36.13032],[-57.11483,-36.27183],[-56.99751,-36.33071],[-56.92371,-36.32746],[-56.92936,-36.36314],[-56.89095,-36.32207],[-56.7806,-36.32209],[-56.76209,-36.34642],[-56.7852,-36.28771],[-56.73038,-36.33063],[-56.69581,-36.43095],[-56.66815,-36.8833],[-57.10913,-37.46524],[-57.48605,-37.81757],[-57.54396,-37.98496],[-57.54017,-38.09583],[-57.85631,-38.29497],[-58.49012,-38.53257],[-59.10333,-38.69654],[-59.78321,-38.82107],[-61.15845,-39.00066],[-61.5799,-39.00575],[-61.71846,-38.96388],[-61.9007,-38.96934],[-62.06671,-38.91275],[-62.03199,-38.90988],[-62.07678,-38.92132],[-62.12985,-38.81482],[-62.39562,-38.75114],[-62.34625,-38.76881],[-62.39831,-38.81729],[-62.37723,-38.89704],[-62.34075,-38.87379],[-62.32538,-38.89497],[-62.3456,-38.94819],[-62.25894,-38.95974],[-62.31139,-38.98654],[-62.27185,-38.99375],[-62.35549,-39.09234],[-62.32217,-39.20078],[-62.24295,-39.25177],[-62.32353,-39.26099],[-62.26851,-39.27069],[-62.29949,-39.28729],[-62.11016,-39.29617],[-62.00791,-39.35778],[-62.03704,-39.41316],[-62.19061,-39.29149],[-62.2898,-39.30748],[-62.2705,-39.34001],[-62.21538,-39.34255],[-62.25953,-39.34504],[-62.20148,-39.3793],[-62.22993,-39.39532],[-62.05016,-39.44021],[-62.0478,-39.48288],[-62.1096,-39.67198],[-62.1199,-39.84155],[-62.16352,-39.82854],[-62.15375,-39.85006],[-62.20461,-39.8574],[-62.31056,-39.82064],[-62.27499,-39.85129],[-62.32483,-39.86627],[-62.34264,-39.95581],[-62.33021,-40.1653],[-62.47924,-40.29771],[-62.41969,-40.45331],[-62.16736,-40.5883],[-62.30893,-40.86636],[-62.75684,-41.03439],[-62.95769,-40.81708],[-63.19442,-40.71544],[-63.38839,-40.70625],[-63.39464,-34.38453],[-61.7184,-34.37835],[-60.91703,-33.63613],[-60.86989,-33.54978],[-60.69173,-33.57556],[-60.54572,-33.64377],[-60.46245,-33.62869],[-60.40619,-33.45838],[-60.34104,-33.41426],[-60.25055,-33.25966]]]]}},{"type":"Feature","properties":{"id":"caba","name":"CABA","area_km2":204},"geometry":{"type":"MultiPolygon","coordinates":[[[[-58.37397,-34.66075],[-58.46227,-34.70861],[-58.52953,-34.65909],[-58.50111,-34.55365],[-58.45691,-34.53446],[-58.36114,-34.58631],[-58.33641,-34.63104],[-58.37397,-34.66075]]]]}},{"type":"Feature","properties":{"id":"catamarca","name":"Catamarca","area_km2":102368},"geometry":{"type":"MultiPolygon","coordinates":[[[[-66.59192,-26.17253],[-66.45909,-26.35697],[-66.37423,-26.39762],[-66.32392,-26.27815],[-66.22248,-26.15335],[-66.14829,-26.13803],[-66.08412,-26.21456],[-66.10408,-26.39485],[-66.14957,-26.40367],[-66.16316,-26.5869],[-66.0615,-26.61405],[-65.86156,-26.74794],[-65.89914,-26.84064],[-65.85947,-26.92803],[-66.14754,-27.24252],[-65.99029,-27.31205],[-65.96959,-27.54557],[-65.92096,-27.66715],[-65.86674,-27.68196],[-65.82548,-27.85298],[-65.75101,-27.77495],[-65.6609,-27.95896],[-65.57298,-28.00168],[-65.36836,-27.84052],[-65.18417,-27.93488],[-65.11768,-28.19098],[-65.10019,-28.46888],[-65.12651,-28.60847],[-65.18193,-28.59998],[-65.18167,-28.65254],[-65.1449,-28.66566],[-65.13316,-28.71677],[-65.02615,-28.74891],[-64.9176,-28.87048],[-64.82545,-29.11448],[-64.89078,-29.27738],[-64.8481,-29.31235],[-64.89249,-29.34251],[-64.83616,-29.43239],[-64.82854,-29.5624],[-64.97049,-29.58505],[-64.90806,-29.90606],[-65.12612,-30.06501],[-65.41453,-30.12182],[-65.75345,-29.27672],[-65.82982,-29.25282],[-65.8294,-29.18029],[-66.11058,-28.94022],[-66.22071,-28.88924],[-66.39881,-28.86296],[-66.33183,-28.7389],[-66.4904,-28.6401],[-66.49016,-28.54389],[-66.52857,-28.52948],[-66.5186,-28.4523],[-66.58029,-28.31954],[-66.99723,-28.24205],[-67.092,-28.27859],[-67.16123,-28.37948],[-67.38355,-28.38076],[-67.65574,-28.31217],[-67.81038,-28.3498],[-67.81847,-28.38586],[-67.92309,-28.2128],[-67.91852,-28.12141],[-68.10424,-28.15912],[-68.18106,-28.09038],[-68.28416,-28.08544],[-68.3037,-28.02353],[-68.44653,-28.02226],[-68.42839,-27.88204],[-68.50647,-27.80382],[-68.49291,-27.73318],[-68.55394,-27.71016],[-68.84649,-27.77987],[-69.09528,-27.7721],[-69.06833,-27.61389],[-69.01808,-27.57134],[-68.97867,-27.4474],[-68.93756,-27.43269],[-68.85318,-27.30233],[-68.88024,-27.24319],[-68.79502,-27.11108],[-68.80219,-27.06069],[-68.72225,-27.0894],[-68.62373,-27.05462],[-68.53908,-27.07407],[-68.31215,-27.0391],[-68.32459,-26.95837],[-68.28447,-26.90592],[-68.5981,-26.50046],[-68.57413,-26.29129],[-68.39205,-26.18125],[-68.50018,-25.69135],[-68.56483,-25.64282],[-68.53567,-25.57781],[-68.58279,-25.40096],[-68.54902,-25.31598],[-68.59044,-25.19411],[-68.50587,-25.15194],[-67.98624,-25.23907],[-66.55792,-25.27393],[-66.53176,-25.492],[-66.58791,-25.67504],[-66.76937,-25.69691],[-66.81654,-25.74165],[-66.79857,-25.89955],[-66.59192,-26.17253]]]]}},{"type":"Feature","properties":{"id":"chaco","name":"Chaco","area_km2":100544},"geometry":{"type":"MultiPolygon","coordinates":[[[[-62.34824,-24.10956],[-62.31246,-24.09248],[-62.28911,-24.1317],[-62.19356,-24.15324],[-62.17855,-24.20776],[-62.09657,-24.18991],[-62.10087,-24.21729],[-61.97408,-24.2293],[-61.87697,-24.31162],[-61.78857,-24.33997],[-61.78702,-24.31324],[-61.67906,-24.45248],[-61.60204,-24.45957],[-61.46014,-24.6256],[-61.22144,-24.65222],[-61.19581,-24.71363],[-61.16048,-24.70783],[-61.12462,-24.81734],[-60.89414,-25.0197],[-60.65313,-25.13291],[-60.66154,-25.15768],[-60.4869,-25.20114],[-60.477,-25.26312],[-60.32424,-25.39232],[-60.34937,-25.42141],[-60.3044,-25.42594],[-60.28323,-25.48827],[-60.23569,-25.49239],[-60.19537,-25.64576],[-60.05477,-25.67937],[-59.86966,-25.8055],[-59.8788,-25.8413],[-59.75048,-25.93475],[-59.7066,-26.01425],[-59.67133,-26.01169],[-59.66033,-26.14154],[-59.63316,-26.11207],[-59.57376,-26.14743],[-59.42851,-26.15342],[-59.3557,-26.33252],[-59.31552,-26.31647],[-59.26791,-26.34293],[-59.14903,-26.28912],[-59.15111,-26.31576],[-59.07195,-26.36587],[-58.96286,-26.38643],[-58.85711,-26.50612],[-58.77684,-26.5389],[-58.75144,-26.59395],[-58.6968,-26.58441],[-58.68315,-26.63236],[-58.58112,-26.67646],[-58.48722,-26.79524],[-58.42705,-26.79684],[-58.38939,-26.82444],[-58.4006,-26.851],[-58.36442,-26.84969],[-58.41528,-26.91207],[-58.48685,-26.93296],[-58.48208,-27.07526],[-58.55058,-27.04668],[-58.56418,-27.10697],[-58.62892,-27.11401],[-58.66655,-27.15569],[-58.60193,-27.25734],[-58.62432,-27.33185],[-58.7692,-27.38063],[-58.88778,-27.48165],[-58.88013,-27.60019],[-58.82559,-27.67082],[-58.8117,-27.78374],[-58.89356,-27.99876],[-61.71784,-27.99333],[-61.71295,-25.6549],[-63.42833,-25.65126],[-62.34843,-24.39377],[-62.34824,-24.10956]]]]}},{"type":"Feature","properties":{"id":"chubut","name":"Chubut","area_km2":224531},"geometry":{"type":"MultiPolygon","coordinates":[[[[-71.77276,-41.99919],[-65.07725,-41.99738],[-65.02362,-42.08476],[-64.89267,-42.17735],[-64.46533,-42.23575],[-64.54973,-42.29308],[-64.62226,-42.41093],[-64.43083,-42.43672],[-64.3088,-42.39941],[-64.12939,-42.42463],[-64.04337,-42.34478],[-64.09074,-42.2483],[-64.37684,-42.23351],[-64.07461,-42.1756],[-63.79724,-42.06832],[-63.74348,-42.08428],[-63.6072,-42.31242],[-63.61616,-42.44211],[-63.61885,-42.31085],[-63.67588,-42.26024],[-63.62172,-42.35441],[-63.58122,-42.60244],[-63.63976,-42.69548],[-63.63545,-42.75793],[-63.69277,-42.79484],[-64.10928,-42.87351],[-64.2416,-42.78027],[-64.24843,-42.67623],[-64.20734,-42.6252],[-64.26779,-42.61933],[-64.26084,-42.58507],[-64.31582,-42.57875],[-64.33535,-42.53016],[-64.63193,-42.49283],[-64.83091,-42.60972],[-64.98506,-42.65543],[-65.03313,-42.72991],[-65.01331,-42.77919],[-64.63636,-42.91849],[-64.41991,-42.95804],[-64.34131,-42.935],[-64.31362,-42.97391],[-64.47327,-43.07173],[-64.75599,-43.14369],[-64.96599,-43.24929],[-65.05349,-43.33444],[-65.05671,-43.40078],[-65.32401,-43.63471],[-65.35206,-43.74287],[-65.3088,-43.78692],[-65.32267,-43.84326],[-65.2801,-43.95819],[-65.22488,-43.96746],[-65.24035,-44.02328],[-65.18996,-44.03239],[-65.23376,-44.07597],[-65.21403,-44.13425],[-65.28369,-44.15637],[-65.30418,-44.20589],[-65.2076,-44.3572],[-65.32182,-44.4425],[-65.26997,-44.50883],[-65.36281,-44.50896],[-65.35175,-44.53194],[-65.38371,-44.54373],[-65.35662,-44.58005],[-65.45056,-44.56652],[-65.62202,-44.65574],[-65.68783,-44.7253],[-65.72402,-44.84888],[-65.52004,-44.92756],[-65.5904,-44.9563],[-65.61253,-45.03214],[-65.68185,-45.03062],[-65.68735,-45.05878],[-65.74167,-45.02431],[-65.80715,-45.0161],[-65.81934,-45.03998],[-65.8408,-45.00299],[-65.92876,-45.04862],[-66.01862,-44.99448],[-66.18753,-44.98005],[-66.28206,-45.05218],[-66.35682,-45.03945],[-66.52654,-45.11011],[-66.52756,-45.14418],[-66.46477,-45.15966],[-66.59407,-45.14216],[-66.51504,-45.21967],[-66.83467,-45.22973],[-66.95581,-45.27209],[-67.06314,-45.34994],[-67.20659,-45.53821],[-67.33268,-45.62693],[-67.36505,-45.78367],[-67.45131,-45.81635],[-67.54733,-45.92083],[-67.5296,-45.95595],[-67.59099,-45.99771],[-71.65031,-46.00037],[-71.62682,-45.93239],[-71.68113,-45.86865],[-71.76548,-45.84437],[-71.74347,-45.80398],[-71.79875,-45.71888],[-71.77176,-45.68457],[-71.77938,-45.61377],[-71.73126,-45.58325],[-71.76262,-45.55546],[-71.67702,-45.51166],[-71.55581,-45.52251],[-71.47133,-45.49372],[-71.53396,-45.43521],[-71.53494,-45.39494],[-71.43727,-45.39434],[-71.44124,-45.35918],[-71.37637,-45.34353],[-71.32029,-45.28602],[-71.42039,-45.1529],[-71.48368,-45.14303],[-71.52387,-45.09978],[-71.50669,-45.06279],[-71.56036,-45.02309],[-71.5562,-44.97569],[-71.73788,-44.94908],[-71.75365,-44.91905],[-71.92726,-44.9385],[-71.9725,-44.89712],[-72.03,-44.89486],[-72.05902,-44.86889],[-72.03123,-44.85382],[-72.07016,-44.83747],[-72.02811,-44.79806],[-72.06634,-44.75208],[-71.93635,-44.7922],[-71.91606,-44.76837],[-71.81995,-44.78511],[-71.78008,-44.74873],[-71.66537,-44.78618],[-71.48415,-44.72964],[-71.3756,-44.78927],[-71.27003,-44.79939],[-71.20991,-44.7491],[-71.1993,-44.67582],[-71.23602,-44.64506],[-71.20131,-44.58761],[-71.11413,-44.59183],[-71.09162,-44.52911],[-71.15997,-44.49437],[-71.1439,-44.45875],[-71.17197,-44.43665],[-71.24699,-44.41177],[-71.35304,-44.41913],[-71.38919,-44.38185],[-71.66754,-44.40878],[-71.7042,-44.37948],[-71.80654,-44.41782],[-71.83714,-44.35293],[-71.79256,-44.33418],[-71.82523,-44.26031],[-71.77619,-44.21713],[-71.84465,-44.15885],[-71.84879,-44.11137],[-71.76145,-44.1003],[-71.64603,-43.93204],[-71.75755,-43.83888],[-71.75012,-43.78277],[-71.66112,-43.70143],[-71.60231,-43.69253],[-71.58786,-43.64427],[-71.70232,-43.62106],[-71.774,-43.53441],[-71.87023,-43.5458],[-71.85511,-43.47052],[-71.93505,-43.45023],[-71.89627,-43.3209],[-71.73917,-43.31083],[-71.73102,-43.20041],[-71.76343,-43.1617],[-72.006,-43.12548],[-72.11371,-43.06129],[-72.13389,-42.99906],[-72.09829,-42.87734],[-72.10152,-42.71542],[-72.13727,-42.58791],[-72.10058,-42.52751],[-72.02126,-42.48693],[-72.0705,-42.42605],[-72.03791,-42.37096],[-72.12912,-42.29906],[-72.04109,-42.19592],[-72.0594,-42.17229],[-71.96535,-42.13488],[-71.91887,-42.18431],[-71.72263,-42.12416],[-71.72488,-42.04947],[-71.77276,-41.99919]]]]}},{"type":"Feature","properties":{"id":"cordoba","name":"Córdoba","area_km2":165316},"geometry":{"type":"MultiPolygon","coordinates":[[[[-65.41453,-30.12182],[-65.12612,-30.06501],[-64.90806,-29.90606],[-64.97049,-29.58505],[-64.33269,-29.50274],[-63.97787,-29.54545],[-63.96331,-29.61665],[-63.89335,-29.61708],[-63.86601,-29.5692],[-63.80793,-29.56942],[-63.77361,-29.64055],[-63.72353,-29.66281],[-63.46986,-29.66281],[-63.48402,-29.72218],[-63.45306,-29.72316],[-63.45263,-29.77534],[-62.78429,-29.8142],[-62.81139,-29.84166],[-62.76425,-29.93861],[-62.56063,-30.08179],[-62.59326,-30.17637],[-62.56376,-30.28992],[-62.52271,-30.32576],[-62.17801,-30.32984],[-62.12845,-30.48756],[-62.02419,-30.59181],[-61.97888,-30.59748],[-61.98325,-30.64573],[-61.83296,-30.67294],[-62.13266,-31.60803],[-62.25035,-31.70111],[-62.21567,-31.78099],[-62.23036,-31.88622],[-62.1768,-31.97215],[-62.19551,-32.11659],[-62.12802,-32.20781],[-62.04003,-32.25697],[-61.93218,-32.45838],[-61.92894,-32.53977],[-61.90191,-32.55561],[-61.92082,-32.58531],[-61.88813,-32.60648],[-61.95391,-32.67324],[-61.86561,-32.69725],[-61.79004,-32.79048],[-61.79615,-33.01812],[-61.92569,-33.12423],[-62.86837,-34.36828],[-63.39464,-34.38453],[-63.39344,-34.99798],[-65.10757,-34.9972],[-65.11065,-33.91203],[-65.14913,-33.20196],[-65.05311,-33.13954],[-65.0636,-33.09263],[-64.92728,-32.70115],[-64.94165,-32.65682],[-64.88191,-32.57284],[-64.93885,-32.43394],[-64.92463,-32.32388],[-65.2142,-32.32077],[-65.24932,-32.10825],[-65.29287,-32.05433],[-65.65595,-31.88444],[-65.7791,-31.8847],[-65.77055,-31.03112],[-65.53394,-30.48174],[-65.41453,-30.12182]]]]}},{"type":"Feature","properties":{"id":"corrientes","name":"Corrientes","area_km2":89562},"geometry":{"type":"MultiPolygon","coordinates":[[[[-58.89356,-27.99876],[-58.8117,-27.78374],[-58.82559,-27.67082],[-58.88013,-27.60019],[-58.88778,-27.48165],[-58.7692,-27.38063],[-58.53401,-27.2784],[-58.17014,-27.24606],[-57.95611,-27.26205],[-57.84401,-27.28461],[-57.80407,-27.3279],[-57.70129,-27.33114],[-57.59952,-27.38238],[-57.33133,-27.41953],[-57.11773,-27.4882],[-56.90663,-27.43264],[-56.73423,-27.51002],[-56.70574,-27.46827],[-56.60057,-27.44518],[-56.48297,-27.57635],[-56.4146,-27.59374],[-56.30797,-27.5015],[-56.29136,-27.42138],[-56.17516,-27.34169],[-56.0687,-27.31236],[-56.02895,-27.33023],[-56.05836,-27.45725],[-55.85088,-27.76102],[-55.82327,-27.94361],[-55.62371,-28.12789],[-55.6333,-28.17132],[-55.78486,-28.25109],[-55.67449,-28.32716],[-55.70617,-28.4222],[-55.75033,-28.3691],[-55.87952,-28.3596],[-55.91041,-28.40742],[-55.88933,-28.47026],[-56.01449,-28.50624],[-56.02542,-28.60673],[-56.18866,-28.74509],[-56.30246,-28.79121],[-56.32109,-28.9141],[-56.41097,-28.97441],[-56.43259,-29.08308],[-56.58878,-29.11736],[-56.65146,-29.20026],[-56.7029,-29.35449],[-56.76826,-29.37715],[-56.82202,-29.48337],[-57.10827,-29.75098],[-57.28936,-29.81352],[-57.33902,-29.88036],[-57.3491,-29.99752],[-57.48937,-30.12015],[-57.64728,-30.18279],[-57.62003,-30.26284],[-57.6526,-30.34192],[-57.8803,-30.49859],[-57.88718,-30.57901],[-57.81403,-30.6865],[-57.81121,-30.75241],[-57.83412,-30.70303],[-58.01667,-30.59745],[-58.05874,-30.54293],[-58.06749,-30.42164],[-58.13713,-30.39191],[-58.20407,-30.29386],[-58.27234,-30.24706],[-58.35795,-30.26278],[-58.58123,-30.16524],[-58.68212,-30.16392],[-58.88138,-30.23938],[-59.0212,-30.21827],[-59.23997,-30.3604],[-59.39832,-30.3202],[-59.55508,-30.33356],[-59.59653,-30.42509],[-59.68877,-30.28614],[-59.62302,-30.22745],[-59.60007,-30.06046],[-59.56358,-30.02789],[-59.62455,-29.8823],[-59.68072,-29.83011],[-59.61877,-29.75377],[-59.63791,-29.69822],[-59.60356,-29.6463],[-59.60974,-29.40314],[-59.52597,-29.31755],[-59.49354,-29.22449],[-59.39967,-29.20931],[-59.32763,-29.09752],[-59.21277,-29.05816],[-59.16178,-28.7777],[-59.07772,-28.64411],[-59.11012,-28.60581],[-59.05748,-28.48241],[-59.10083,-28.34278],[-59.09783,-28.21093],[-59.0539,-28.12397],[-58.9118,-28.09853],[-58.8714,-28.03205],[-58.89356,-27.99876]]]]}},{"type":"Feature","properties":{"id":"entre_rios","name":"Entre Ríos","area_km2":78803},"geometry":{"type":"MultiPolygon","coordinates":[[[[-59.66145,-30.34802],[-59.59653,-30.42509],[-59.55508,-30.33356],[-59.39832,-30.3202],[-59.23997,-30.3604],[-59.0212,-30.21827],[-58.88138,-30.23938],[-58.68212,-30.16392],[-58.58123,-30.16524],[-58.35795,-30.26278],[-58.27234,-30.24706],[-58.20407,-30.29386],[-58.13713,-30.39191],[-58.06749,-30.42164],[-58.05874,-30.54293],[-58.01667,-30.59745],[-57.83412,-30.70303],[-57.81121,-30.75241],[-57.79805,-30.86534],[-57.8268,-30.90642],[-57.91365,-30.92263],[-57.85643,-31.03524],[-57.91792,-31.1256],[-57.93171,-31.26484],[-57.98148,-31.32326],[-57.99027,-31.39136],[-58.0781,-31.44469],[-57.99115,-31.55835],[-57.9952,-31.61834],[-58.07457,-31.8],[-58.17366,-31.81626],[-58.20413,-31.85441],[-58.14024,-32.01334],[-58.17661,-32.15199],[-58.09583,-32.27065],[-58.10707,-32.31996],[-58.18603,-32.3932],[-58.19703,-32.48981],[-58.07662,-33.00277],[-58.18555,-33.09882],[-58.34032,-33.09953],[-58.38659,-33.15319],[-58.37812,-33.29453],[-58.45344,-33.38551],[-58.49164,-33.67088],[-58.38443,-34.01612],[-58.65939,-34.03822],[-58.76444,-33.94245],[-58.85055,-33.93948],[-59.00697,-33.83328],[-59.13134,-33.84211],[-59.18627,-33.79897],[-59.23627,-33.80299],[-59.25637,-33.71776],[-59.44238,-33.72848],[-59.52183,-33.63067],[-59.61971,-33.68929],[-59.67888,-33.61701],[-59.81605,-33.58452],[-59.83265,-33.52114],[-60.06065,-33.43243],[-60.18535,-33.33892],[-60.20676,-33.28417],[-60.30061,-33.23861],[-60.31937,-33.17182],[-60.38624,-33.18346],[-60.51496,-33.11055],[-60.61157,-32.95139],[-60.67807,-32.89952],[-60.75744,-32.4993],[-60.71293,-32.40153],[-60.73661,-32.31144],[-60.67404,-32.30626],[-60.67465,-32.22403],[-60.73437,-32.1707],[-60.65891,-32.0801],[-60.68556,-32.01781],[-60.72446,-32.00435],[-60.6633,-31.90988],[-60.66746,-31.73695],[-60.57131,-31.69163],[-60.4287,-31.67679],[-60.32588,-31.60516],[-60.32882,-31.54644],[-60.24168,-31.51956],[-60.13771,-31.43325],[-60.09603,-31.28573],[-60.01587,-31.24319],[-59.96237,-31.11292],[-59.89064,-31.06006],[-59.62719,-30.69951],[-59.67292,-30.63166],[-59.65143,-30.51959],[-59.70874,-30.40779],[-59.66145,-30.34802]]]]}},{"type":"Feature","properties":{"id":"formosa","name":"Formosa","area_km2":76026},"geometry":{"type":"MultiPolygon","coordinates":[[[[-62.34531,-22.45427],[-62.23707,-22.55322],[-62.26831,-22.59402],[-62.19957,-22.62569],[-62.20451,-22.69538],[-62.13147,-22.7941],[-62.03144,-22.87468],[-61.98494,-23.02841],[-61.86893,-23.08633],[-61.67205,-23.27707],[-61.57378,-23.29879],[-61.4969,-23.41166],[-61.3234,-23.462],[-61.25127,-23.53239],[-61.10824,-23.59163],[-61.08268,-23.67876],[-60.98758,-23.80616],[-60.93544,-23.79956],[-60.82997,-23.86974],[-60.61791,-23.8961],[-60.5788,-23.95188],[-60.47211,-23.94616],[-60.37746,-24.02412],[-60.19197,-24.04605],[-60.0341,-24.00925],[-59.47429,-24.33099],[-59.29695,-24.51722],[-58.97151,-24.65877],[-58.81247,-24.76942],[-58.72674,-24.77384],[-58.67774,-24.82372],[-58.45711,-24.84137],[-58.33618,-24.99515],[-58.2319,-24.91965],[-58.07655,-25.0381],[-58.01143,-25.02523],[-57.98426,-25.07435],[-57.85911,-25.07889],[-57.75349,-25.17294],[-57.69513,-25.323],[-57.56686,-25.43785],[-57.57265,-25.55894],[-57.62318,-25.61665],[-57.67069,-25.60386],[-57.68411,-25.65936],[-57.72278,-25.64554],[-57.76144,-25.6724],[-57.7769,-25.71305],[-57.73871,-25.72288],[-57.77941,-25.76234],[-57.83478,-25.76484],[-57.81105,-25.83699],[-57.8744,-25.86166],[-57.85335,-25.91834],[-57.90017,-25.95868],[-57.86653,-26.01136],[-57.9286,-26.01646],[-57.9625,-26.07669],[-58.08035,-26.11295],[-58.1158,-26.18335],[-58.15879,-26.17927],[-58.10861,-26.23067],[-58.16706,-26.2618],[-58.17448,-26.35576],[-58.22182,-26.39213],[-58.19138,-26.44911],[-58.2341,-26.46756],[-58.18708,-26.64064],[-58.251,-26.6446],[-58.2449,-26.74547],[-58.33398,-26.80974],[-58.32776,-26.86588],[-58.4006,-26.851],[-58.38939,-26.82444],[-58.42705,-26.79684],[-58.48722,-26.79524],[-58.58112,-26.67646],[-58.68315,-26.63236],[-58.6968,-26.58441],[-58.75144,-26.59395],[-58.77684,-26.5389],[-58.85711,-26.50612],[-58.96286,-26.38643],[-59.07195,-26.36587],[-59.15111,-26.31576],[-59.14903,-26.28912],[-59.26791,-26.34293],[-59.31552,-26.31647],[-59.3557,-26.33252],[-59.42851,-26.15342],[-59.57376,-26.14743],[-59.63316,-26.11207],[-59.66033,-26.14154],[-59.67133,-26.01169],[-59.7066,-26.01425],[-59.75048,-25.93475],[-59.8788,-25.8413],[-59.86966,-25.8055],[-60.05477,-25.67937],[-60.19537,-25.64576],[-60.23569,-25.49239],[-60.28323,-25.48827],[-60.3044,-25.42594],[-60.34937,-25.42141],[-60.32424,-25.39232],[-60.477,-25.26312],[-60.4869,-25.20114],[-60.66154,-25.15768],[-60.65313,-25.13291],[-60.89414,-25.0197],[-61.12462,-24.81734],[-61.16048,-24.70783],[-61.19581,-24.71363],[-61.22144,-24.65222],[-61.46014,-24.6256],[-61.60204,-24.45957],[-61.67906,-24.45248],[-61.78702,-24.31324],[-61.78857,-24.33997],[-61.87697,-24.31162],[-61.97408,-24.2293],[-62.10087,-24.21729],[-62.09657,-24.18991],[-62.17855,-24.20776],[-62.19356,-24.15324],[-62.28911,-24.1317],[-62.31246,-24.09248],[-62.34824,-24.10956],[-62.34531,-22.45427]]]]}},{"type":"Feature","properties":{"id":"jujuy","name":"Jujuy","area_km2":53333},"geometry":{"type":"MultiPolygon","coordinates":[[[[-64.44452,-23.63424],[-64.35671,-23.50591],[-64.17427,-23.50632],[-64.15646,-24.20622],[-64.28037,-24.41211],[-64.52855,-24.49207],[-64.63047,-24.60802],[-64.83287,-24.47704],[-64.91129,-24.60372],[-65.07976,-24.56424],[-65.18618,-24.46029],[-65.33433,-24.50114],[-65.35212,-24.46685],[-65.42746,-24.46978],[-65.45477,-24.4311],[-65.51072,-24.45795],[-65.57342,-24.42642],[-65.6289,-24.37419],[-65.62349,-24.33514],[-65.83014,-23.99873],[-65.99978,-23.95189],[-66.02604,-23.81922],[-65.99091,-23.51472],[-66.33682,-23.36723],[-66.3955,-23.53858],[-66.32889,-23.72359],[-66.36796,-24.08599],[-66.47709,-24.20704],[-66.59658,-24.19589],[-66.72009,-24.13769],[-66.74839,-24.0872],[-66.80812,-24.09185],[-66.93557,-23.95489],[-67.00372,-23.95875],[-67.0064,-23.86363],[-67.22527,-23.69315],[-67.00225,-22.99543],[-67.18799,-22.80868],[-67.13499,-22.72604],[-67.02208,-22.65591],[-67.0285,-22.54006],[-66.97037,-22.53791],[-66.9255,-22.4905],[-66.77893,-22.43483],[-66.7373,-22.23671],[-66.34711,-22.13206],[-66.29069,-22.08415],[-66.21714,-21.77775],[-66.07335,-21.83195],[-66.04035,-21.91777],[-65.92297,-21.9337],[-65.7697,-22.10053],[-65.18566,-22.08325],[-65.23979,-22.3172],[-65.34154,-22.50476],[-65.33765,-22.59436],[-65.26712,-22.63408],[-65.29061,-22.73198],[-65.24352,-22.92944],[-65.17936,-22.98275],[-65.03569,-22.99325],[-65.01409,-23.019],[-65.0298,-23.27617],[-64.95034,-23.32844],[-64.87119,-23.50043],[-64.81172,-23.50966],[-64.67075,-23.45746],[-64.55003,-23.51822],[-64.44452,-23.63424]]]]}},{"type":"Feature","properties":{"id":"la_pampa","name":"La Pampa","area_km2":140956},"geometry":{"type":"MultiPolygon","coordinates":[[[[-65.10757,-34.9972],[-63.39344,-34.99798],[-63.38938,-39.31796],[-63.62966,-39.24167],[-63.7668,-39.12765],[-63.90547,-39.09567],[-64.00234,-39.00739],[-64.45744,-38.85787],[-65.1514,-38.80039],[-65.18918,-38.83141],[-65.27187,-38.81722],[-65.36876,-38.85099],[-65.55572,-38.77517],[-65.66128,-38.83019],[-66.07537,-38.72547],[-66.31609,-38.75478],[-66.47577,-38.73501],[-66.59817,-38.67211],[-66.57795,-38.61929],[-66.63884,-38.53287],[-66.99263,-38.44223],[-67.15053,-38.35711],[-67.18638,-38.21368],[-67.37232,-38.25234],[-67.54532,-38.25107],[-67.64139,-38.21137],[-67.75154,-38.06813],[-67.84465,-38.06484],[-67.90013,-38.00027],[-67.71718,-37.81506],[-67.78652,-37.65692],[-67.88208,-37.61264],[-68.24374,-37.57741],[-68.24266,-36.16523],[-68.29678,-36.16581],[-68.29676,-35.99804],[-65.1031,-35.99648],[-65.10757,-34.9972]]]]}},{"type":"Feature","properties":{"id":"la_rioja","name":"La Rioja","area_km2":91694},"geometry":{"type":"MultiPolygon","coordinates":[[[[-69.09528,-27.7721],[-68.84649,-27.77987],[-68.55394,-27.71016],[-68.49291,-27.73318],[-68.50647,-27.80382],[-68.42839,-27.88204],[-68.44653,-28.02226],[-68.3037,-28.02353],[-68.28416,-28.08544],[-68.18106,-28.09038],[-68.10424,-28.15912],[-67.91852,-28.12141],[-67.92309,-28.2128],[-67.81847,-28.38586],[-67.81038,-28.3498],[-67.65574,-28.31217],[-67.38355,-28.38076],[-67.16123,-28.37948],[-67.092,-28.27859],[-66.99723,-28.24205],[-66.58029,-28.31954],[-66.5186,-28.4523],[-66.52857,-28.52948],[-66.49016,-28.54389],[-66.4904,-28.6401],[-66.33183,-28.7389],[-66.39881,-28.86296],[-66.22071,-28.88924],[-66.11058,-28.94022],[-65.8294,-29.18029],[-65.82982,-29.25282],[-65.75345,-29.27672],[-65.41453,-30.12182],[-65.53394,-30.48174],[-65.77055,-31.03112],[-65.7791,-31.8847],[-65.95619,-31.88543],[-66.07611,-31.97229],[-66.12475,-31.94535],[-66.1541,-31.96996],[-66.30721,-31.94207],[-66.34349,-32.00199],[-66.56046,-31.97632],[-66.68158,-31.91899],[-66.76556,-31.81797],[-66.85008,-31.78331],[-66.87034,-31.63756],[-66.94701,-31.6372],[-67.05796,-31.54688],[-67.10102,-31.38689],[-67.06315,-31.08522],[-67.11731,-31.02031],[-67.07718,-30.88656],[-67.18064,-30.72196],[-67.55211,-30.40686],[-67.57728,-30.30717],[-67.69175,-30.18716],[-68.00526,-29.97047],[-68.10417,-29.84508],[-68.17449,-29.84706],[-68.19661,-29.78745],[-68.24567,-29.77609],[-68.33492,-29.67562],[-68.61514,-29.63974],[-68.69385,-29.60045],[-68.83059,-29.61579],[-68.8807,-29.59277],[-68.95187,-29.63435],[-69.00385,-29.61475],[-69.03188,-29.52061],[-68.95756,-29.44235],[-68.99414,-29.4025],[-68.95299,-29.29112],[-69.00741,-29.14792],[-68.97479,-29.11192],[-68.93557,-29.12472],[-68.9045,-29.05771],[-68.96747,-28.96941],[-68.95018,-28.91359],[-69.14325,-28.73928],[-69.19884,-28.58929],[-69.35325,-28.43444],[-69.4483,-28.44252],[-69.4901,-28.40019],[-69.66634,-28.37213],[-69.54261,-28.33845],[-69.48374,-28.20051],[-69.40331,-28.217],[-69.31976,-28.13875],[-69.31612,-28.06271],[-69.24556,-27.97351],[-69.18195,-27.96889],[-69.09528,-27.7721]]]]}},{"type":"Feature","properties":{"id":"mendoza","name":"Mendoza","area_km2":149144},"geometry":{"type":"MultiPolygon","coordinates":[[[[-68.07358,-32.08096],[-67.96426,-32.07398],[-67.91423,-32.15892],[-67.82227,-32.20917],[-67.54921,-32.21952],[-67.51188,-32.19743],[-67.45921,-32.30379],[-67.38241,-32.33788],[-67.33197,-32.40896],[-67.24992,-32.68248],[-67.19048,-32.76633],[-67.22065,-32.93531],[-67.15719,-33.43207],[-67.06371,-33.5745],[-67.01234,-33.60325],[-67.001,-33.6929],[-66.9009,-33.7582],[-66.82473,-33.89829],[-66.74077,-33.9491],[-66.74447,-34.19392],[-66.80202,-34.21649],[-66.81802,-34.33017],[-66.78536,-34.36264],[-66.80762,-34.39163],[-66.77349,-34.4251],[-66.75128,-34.58745],[-66.64156,-34.71247],[-66.65596,-34.74658],[-66.55373,-34.89795],[-66.50321,-35.23629],[-66.53462,-35.52506],[-66.57801,-35.59376],[-66.56004,-35.63928],[-66.63306,-35.91107],[-66.62697,-35.99846],[-68.29676,-35.99804],[-68.29678,-36.16581],[-68.24266,-36.16523],[-68.24374,-37.57741],[-68.43094,-37.54556],[-68.49721,-37.45424],[-68.69527,-37.43905],[-68.76444,-37.36598],[-68.86686,-37.39489],[-69.01682,-37.36276],[-69.04172,-37.24645],[-69.15057,-37.18142],[-69.27934,-37.14203],[-69.48984,-37.17427],[-69.73088,-37.06878],[-69.77634,-36.97749],[-69.7612,-36.86598],[-69.9054,-36.7906],[-69.95114,-36.69701],[-70.12577,-36.56759],[-70.20175,-36.45101],[-70.21961,-36.33919],[-70.33985,-36.33875],[-70.3808,-36.28939],[-70.41718,-36.10148],[-70.36946,-36.02266],[-70.42113,-35.97189],[-70.36784,-35.92153],[-70.42886,-35.90426],[-70.41864,-35.87035],[-70.31173,-35.81027],[-70.36549,-35.79845],[-70.35636,-35.743],[-70.41908,-35.62958],[-70.39144,-35.59585],[-70.41914,-35.54117],[-70.38318,-35.51335],[-70.45057,-35.44417],[-70.42742,-35.32963],[-70.54712,-35.30663],[-70.58075,-35.26852],[-70.53984,-35.19977],[-70.44735,-35.19891],[-70.36247,-35.13819],[-70.37185,-35.03444],[-70.24774,-34.80239],[-70.29649,-34.74836],[-70.12613,-34.49556],[-70.015,-34.40594],[-70.02652,-34.36623],[-69.98107,-34.27208],[-69.89775,-34.27894],[-69.79749,-34.23869],[-69.86195,-34.12912],[-69.82401,-34.05918],[-69.89456,-33.79616],[-69.86326,-33.733],[-69.88508,-33.67282],[-69.86824,-33.53596],[-69.7513,-33.41064],[-69.88605,-33.22053],[-69.94128,-33.30791],[-69.99647,-33.32636],[-70.02855,-33.30514],[-70.09556,-33.04936],[-70.03927,-33.01768],[-69.99984,-32.89335],[-70.14173,-32.75776],[-70.16835,-32.59329],[-70.1235,-32.57288],[-70.06863,-32.63092],[-69.98387,-32.539],[-69.83534,-32.56902],[-69.69703,-32.51964],[-69.7125,-32.33392],[-69.62082,-32.23848],[-69.59536,-32.13921],[-69.42413,-32.0659],[-69.31837,-32.08904],[-69.15778,-31.96813],[-69.01743,-32.11123],[-68.93206,-32.09695],[-68.93249,-32.3229],[-68.6641,-32.33042],[-68.48899,-32.17751],[-68.46904,-32.10349],[-68.29084,-32.13565],[-68.07358,-32.08096]]]]}},{"type":"Feature","properties":{"id":"misiones","name":"Misiones","area_km2":29862},"geometry":{"type":"MultiPolygon","coordinates":[[[[-56.02895,-27.33023],[-55.899,-27.34347],[-55.84036,-27.4225],[-55.72976,-27.44374],[-55.60078,-27.33721],[-55.58302,-27.25712],[-55.61932,-27.17035],[-55.57057,-27.15999],[-55.54998,-27.10462],[-55.45217,-27.10174],[-55.41507,-26.98378],[-55.25643,-26.93488],[-55.20769,-26.9633],[-55.14504,-26.95014],[-55.1455,-26.86433],[-55.06139,-26.80113],[-54.9474,-26.78311],[-54.91891,-26.67064],[-54.8102,-26.67513],[-54.78261,-26.64686],[-54.7891,-26.54064],[-54.68959,-26.44137],[-54.63792,-26.30718],[-54.66129,-26.25156],[-54.60905,-26.20897],[-54.66036,-26.14808],[-54.63075,-26.09185],[-54.67935,-25.99575],[-54.6128,-25.95744],[-54.59037,-25.83209],[-54.66073,-25.67779],[-54.58721,-25.66193],[-54.59845,-25.59211],[-54.49162,-25.61756],[-54.43113,-25.6666],[-54.30385,-25.55643],[-54.24745,-25.59625],[-54.23097,-25.56333],[-54.17781,-25.57819],[-54.20549,-25.53895],[-54.10605,-25.49217],[-54.12733,-25.56484],[-54.09991,-25.61525],[-54.08616,-25.55727],[-54.0156,-25.56169],[-53.95603,-25.64144],[-53.95,-25.60877],[-53.89972,-25.62181],[-53.83941,-25.6758],[-53.85348,-25.7334],[-53.81941,-25.7873],[-53.84947,-25.83383],[-53.84447,-25.93455],[-53.72906,-26.05054],[-53.73893,-26.10839],[-53.64589,-26.1974],[-53.64004,-26.26291],[-53.70579,-26.38669],[-53.7014,-26.49956],[-53.73769,-26.53726],[-53.70785,-26.55351],[-53.75565,-26.63496],[-53.71947,-26.67552],[-53.73665,-26.71278],[-53.75976,-26.7048],[-53.66432,-26.85486],[-53.69709,-26.84812],[-53.68336,-26.93079],[-53.70995,-26.9224],[-53.75688,-27.023],[-53.78908,-27.02467],[-53.77267,-27.05293],[-53.80897,-27.03801],[-53.79039,-27.09592],[-53.82861,-27.09612],[-53.81047,-27.1364],[-53.84487,-27.16922],[-53.88122,-27.12893],[-53.91574,-27.17511],[-53.96066,-27.15652],[-54.09653,-27.29951],[-54.16193,-27.294],[-54.18486,-27.25742],[-54.21327,-27.37663],[-54.28586,-27.44419],[-54.34134,-27.40265],[-54.35233,-27.46117],[-54.41847,-27.40211],[-54.47158,-27.42437],[-54.45755,-27.46901],[-54.53916,-27.49655],[-54.59727,-27.44732],[-54.63972,-27.54154],[-54.68297,-27.50446],[-54.69269,-27.56346],[-54.78159,-27.56852],[-54.81468,-27.51935],[-54.84859,-27.61086],[-54.9,-27.6265],[-54.92523,-27.7578],[-55.01161,-27.79384],[-55.08208,-27.77979],[-55.03167,-27.84945],[-55.11849,-27.84888],[-55.1438,-27.89021],[-55.19567,-27.85626],[-55.26409,-27.92389],[-55.31832,-27.91982],[-55.38516,-27.98356],[-55.37878,-28.03675],[-55.4483,-28.09535],[-55.49759,-28.07612],[-55.55854,-28.1586],[-55.59141,-28.11443],[-55.63364,-28.12497],[-55.70899,-28.07503],[-55.82327,-27.94361],[-55.85088,-27.76102],[-56.05836,-27.45725],[-56.02895,-27.33023]]]]}},{"type":"Feature","properties":{"id":"neuquen","name":"Neuquén","area_km2":94717},"geometry":{"type":"MultiPolygon","coordinates":[[[[-70.41718,-36.10148],[-70.36439,-36.32084],[-70.22171,-36.33727],[-70.20175,-36.45101],[-70.12577,-36.56759],[-69.95114,-36.69701],[-69.9054,-36.7906],[-69.7612,-36.86598],[-69.77584,-36.97988],[-69.70548,-37.09029],[-69.48984,-37.17427],[-69.27934,-37.14203],[-69.15057,-37.18142],[-69.04172,-37.24645],[-69.01682,-37.36276],[-68.86686,-37.39489],[-68.76444,-37.36598],[-68.69527,-37.43905],[-68.49721,-37.45424],[-68.43094,-37.54556],[-68.24374,-37.57741],[-68.24634,-38.68723],[-68.12639,-38.75081],[-68.0731,-38.90446],[-68.01518,-38.97671],[-68.2911,-38.98079],[-68.5677,-39.08518],[-68.66904,-39.16626],[-68.6759,-39.22081],[-68.8116,-39.28402],[-68.83901,-39.38382],[-68.99497,-39.50363],[-69.23117,-39.56235],[-69.36045,-39.71385],[-69.50828,-39.80764],[-69.69606,-39.84546],[-69.93571,-39.94622],[-70.00556,-40.04644],[-69.95552,-40.17911],[-70.06263,-40.24604],[-70.06265,-40.36938],[-70.18229,-40.42306],[-70.17307,-40.47901],[-70.42183,-40.5361],[-70.5285,-40.50382],[-70.66444,-40.58852],[-70.85763,-40.59905],[-70.98543,-40.64797],[-71.03793,-40.72491],[-71.09008,-40.72433],[-71.12007,-40.76058],[-71.09873,-40.83394],[-71.02837,-40.90387],[-71.04008,-40.95447],[-71.10262,-40.98647],[-71.13708,-41.0482],[-71.29301,-41.09593],[-71.5389,-41.02428],[-71.86511,-41.02903],[-71.91208,-40.96931],[-71.85869,-40.95652],[-71.86591,-40.88447],[-71.91586,-40.85733],[-71.96639,-40.71538],[-71.84921,-40.62841],[-71.83578,-40.58725],[-71.89378,-40.55331],[-71.86222,-40.55616],[-71.81932,-40.41251],[-71.73792,-40.43672],[-71.66114,-40.361],[-71.70108,-40.28654],[-71.76738,-40.31027],[-71.76376,-40.27712],[-71.82783,-40.23203],[-71.80666,-40.13441],[-71.83437,-40.10077],[-71.80162,-40.07631],[-71.68769,-40.12384],[-71.69321,-40.02781],[-71.65424,-39.96703],[-71.6236,-39.96871],[-71.59568,-39.89746],[-71.69216,-39.8453],[-71.67434,-39.80665],[-71.71079,-39.72213],[-71.6745,-39.68357],[-71.71618,-39.63737],[-71.70495,-39.57987],[-71.50726,-39.63372],[-71.4668,-39.58836],[-71.47143,-39.55003],[-71.53806,-39.52851],[-71.46375,-39.47617],[-71.45052,-39.36836],[-71.39995,-39.34768],[-71.37158,-39.27383],[-71.42408,-39.14312],[-71.4018,-39.10227],[-71.4339,-38.92197],[-71.27578,-38.85106],[-71.25681,-38.81027],[-71.21762,-38.82671],[-71.05402,-38.75031],[-70.93393,-38.76108],[-70.82611,-38.57411],[-70.9924,-38.42417],[-71.02448,-38.24071],[-71.00388,-38.18342],[-71.03386,-38.13452],[-71.00998,-38.08702],[-71.06032,-38.04644],[-71.06468,-37.9665],[-71.11849,-37.93859],[-71.11854,-37.87823],[-71.20481,-37.85253],[-71.13311,-37.81829],[-71.22523,-37.69502],[-71.20041,-37.6211],[-71.13558,-37.58487],[-71.1144,-37.50845],[-71.15774,-37.43084],[-71.22768,-37.41576],[-71.19578,-37.35555],[-71.219,-37.28223],[-71.11658,-37.20892],[-71.15807,-37.15781],[-71.12901,-37.04994],[-71.21115,-36.97879],[-71.12008,-36.96628],[-71.08566,-36.92917],[-71.13301,-36.93168],[-71.176,-36.84256],[-71.13172,-36.77596],[-71.12322,-36.6723],[-71.08241,-36.70113],[-71.01454,-36.67748],[-71.05381,-36.56142],[-71.03677,-36.49628],[-70.94716,-36.49785],[-70.89429,-36.46402],[-70.89239,-36.39237],[-70.84299,-36.41521],[-70.79479,-36.38898],[-70.72469,-36.42344],[-70.6735,-36.30142],[-70.69272,-36.25856],[-70.6282,-36.24431],[-70.54846,-36.12933],[-70.48048,-36.16603],[-70.42539,-36.1567],[-70.41718,-36.10148]]]]}},{"type":"Feature","properties":{"id":"rio_negro","name":"Río Negro","area_km2":203998},"geometry":{"type":"MultiPolygon","coordinates":[[[[-68.24374,-37.57741],[-67.88208,-37.61264],[-67.78652,-37.65692],[-67.71718,-37.81506],[-67.90013,-38.00027],[-67.84465,-38.06484],[-67.75154,-38.06813],[-67.64139,-38.21137],[-67.54532,-38.25107],[-67.37232,-38.25234],[-67.18638,-38.21368],[-67.15053,-38.35711],[-66.99263,-38.44223],[-66.63884,-38.53287],[-66.57795,-38.61929],[-66.59817,-38.67211],[-66.47577,-38.73501],[-66.31609,-38.75478],[-66.07537,-38.72547],[-65.66128,-38.83019],[-65.55572,-38.77517],[-65.36876,-38.85099],[-65.27187,-38.81722],[-65.18918,-38.83141],[-65.1514,-38.80039],[-64.45744,-38.85787],[-64.00234,-39.00739],[-63.90547,-39.09567],[-63.7668,-39.12765],[-63.62966,-39.24167],[-63.38938,-39.31796],[-63.38839,-40.70625],[-63.19442,-40.71544],[-62.95291,-40.81958],[-62.78936,-41.02278],[-63.09661,-41.1521],[-63.77529,-41.15877],[-64.09117,-41.02689],[-64.07801,-40.99184],[-64.19356,-41.0101],[-64.47141,-40.89239],[-64.74997,-40.82308],[-64.88691,-40.83122],[-64.90771,-40.80889],[-64.85291,-40.78956],[-64.85064,-40.8185],[-64.84201,-40.79105],[-64.74313,-40.81286],[-64.73653,-40.78378],[-64.79829,-40.7748],[-64.80526,-40.75013],[-64.76811,-40.74329],[-64.80981,-40.72397],[-65.00638,-40.71662],[-64.93408,-40.72724],[-64.96071,-40.74821],[-64.90652,-40.7634],[-65.01826,-40.76305],[-65.1138,-40.82623],[-65.18027,-41.00153],[-65.10219,-41.36734],[-64.99879,-41.52388],[-65.03719,-41.60618],[-65.00782,-41.76181],[-65.07725,-41.99738],[-71.77276,-41.99919],[-71.79818,-41.8367],[-71.75973,-41.82132],[-71.76883,-41.78234],[-71.87171,-41.60526],[-71.82695,-41.57195],[-71.84027,-41.44351],[-71.919,-41.3637],[-71.85194,-41.26343],[-71.89484,-41.167],[-71.84169,-41.16213],[-71.85051,-41.08584],[-71.82374,-41.06161],[-71.86511,-41.02903],[-71.5389,-41.02428],[-71.29301,-41.09593],[-71.13708,-41.0482],[-71.10262,-40.98647],[-71.04008,-40.95447],[-71.02837,-40.90387],[-71.09873,-40.83394],[-71.12007,-40.76058],[-71.09008,-40.72433],[-71.03793,-40.72491],[-70.98543,-40.64797],[-70.85763,-40.59905],[-70.66444,-40.58852],[-70.5285,-40.50382],[-70.42183,-40.5361],[-70.17307,-40.47901],[-70.18229,-40.42306],[-70.06265,-40.36938],[-70.06263,-40.24604],[-69.95552,-40.17911],[-70.00556,-40.04644],[-69.93571,-39.94622],[-69.69606,-39.84546],[-69.50828,-39.80764],[-69.36045,-39.71385],[-69.23117,-39.56235],[-68.99497,-39.50363],[-68.83901,-39.38382],[-68.8116,-39.28402],[-68.6759,-39.22081],[-68.66904,-39.16626],[-68.5677,-39.08518],[-68.2911,-38.98079],[-68.01518,-38.97671],[-68.0731,-38.90446],[-68.12639,-38.75081],[-68.24634,-38.68723],[-68.24374,-37.57741]]]]}},{"type":"Feature","properties":{"id":"salta","name":"Salta","area_km2":156450},"geometry":{"type":"MultiPolygon","coordinates":[[[[-64.44452,-23.63424],[-64.55003,-23.51822],[-64.67075,-23.45746],[-64.81172,-23.50966],[-64.87119,-23.50043],[-64.95034,-23.32844],[-65.0298,-23.27617],[-65.01409,-23.019],[-65.03569,-22.99325],[-65.17936,-22.98275],[-65.24352,-22.92944],[-65.29061,-22.73198],[-65.26712,-22.63408],[-65.33765,-22.59436],[-65.34154,-22.50476],[-65.23979,-22.3172],[-65.18566,-22.08325],[-64.99695,-22.07741],[-64.74406,-22.18719],[-64.62069,-22.20444],[-64.5297,-22.29044],[-64.56493,-22.32998],[-64.52008,-22.44248],[-64.49128,-22.44083],[-64.42137,-22.5344],[-64.44177,-22.64326],[-64.40631,-22.71973],[-64.34572,-22.74999],[-64.3357,-22.86359],[-64.29237,-22.82728],[-64.24245,-22.57077],[-64.1251,-22.41367],[-64.09038,-22.28473],[-64.01129,-22.16126],[-63.97247,-21.99802],[-63.73997,-21.99832],[-63.70892,-22.04642],[-63.69034,-21.99829],[-62.81089,-21.99618],[-62.78948,-22.16908],[-62.77336,-22.14786],[-62.63527,-22.24639],[-62.61334,-22.31308],[-62.52617,-22.37481],[-62.47942,-22.36174],[-62.44398,-22.41916],[-62.34531,-22.45427],[-62.34843,-24.39377],[-63.47613,-25.70904],[-64.02989,-25.6954],[-64.04515,-25.7617],[-64.28804,-25.7196],[-64.4543,-26.07322],[-64.42988,-26.1042],[-64.4943,-26.23291],[-64.7874,-26.20318],[-64.9456,-26.28227],[-64.96313,-26.24025],[-65.26314,-26.19245],[-65.32065,-26.07324],[-65.42961,-26.10969],[-65.54026,-26.08822],[-65.59648,-26.12359],[-65.6743,-26.11764],[-65.71172,-26.35587],[-66.07319,-26.22403],[-66.1777,-26.13494],[-66.31995,-26.27247],[-66.37645,-26.3972],[-66.51491,-26.2971],[-66.62449,-26.09811],[-66.80323,-25.88627],[-66.81379,-25.73857],[-66.76937,-25.69691],[-66.59147,-25.67886],[-66.56025,-25.61487],[-66.53021,-25.45848],[-66.55792,-25.27393],[-67.98624,-25.23907],[-68.50587,-25.15194],[-68.34306,-25.10061],[-68.48692,-24.87469],[-68.57759,-24.81398],[-68.57426,-24.75021],[-68.49627,-24.64128],[-68.50985,-24.6034],[-68.47202,-24.63401],[-68.39243,-24.52887],[-68.38545,-24.46502],[-68.32421,-24.48883],[-68.2595,-24.39666],[-67.33964,-24.03594],[-67.22452,-23.69376],[-67.0064,-23.86363],[-67.00372,-23.95875],[-66.93557,-23.95489],[-66.80812,-24.09185],[-66.74839,-24.0872],[-66.6533,-24.17608],[-66.47993,-24.20807],[-66.38509,-24.11836],[-66.34296,-23.98965],[-66.32889,-23.72359],[-66.3955,-23.53858],[-66.36348,-23.3848],[-66.33682,-23.36723],[-66.21682,-23.42682],[-66.14844,-23.42735],[-65.99091,-23.51472],[-66.02604,-23.81922],[-65.99978,-23.95189],[-65.83014,-23.99873],[-65.62349,-24.33514],[-65.6289,-24.37419],[-65.57342,-24.42642],[-65.51072,-24.45795],[-65.45477,-24.4311],[-65.42746,-24.46978],[-65.35212,-24.46685],[-65.33433,-24.50114],[-65.18618,-24.46029],[-65.07976,-24.56424],[-64.91129,-24.60372],[-64.83287,-24.47704],[-64.66089,-24.61203],[-64.62012,-24.60247],[-64.52855,-24.49207],[-64.28037,-24.41211],[-64.15708,-24.20909],[-64.17427,-23.50632],[-64.35671,-23.50591],[-64.44452,-23.63424]]]]}},{"type":"Feature","properties":{"id":"san_juan","name":"San Juan","area_km2":89487},"geometry":{"type":"MultiPolygon","coordinates":[[[[-69.66272,-28.37459],[-69.4901,-28.40019],[-69.4483,-28.44252],[-69.35325,-28.43444],[-69.19884,-28.58929],[-69.14325,-28.73928],[-68.95018,-28.91359],[-68.96747,-28.96941],[-68.9045,-29.05771],[-68.93557,-29.12472],[-68.97479,-29.11192],[-69.00741,-29.14792],[-68.95299,-29.29112],[-68.99414,-29.4025],[-68.95756,-29.44235],[-69.03188,-29.52061],[-69.00196,-29.61678],[-68.95187,-29.63435],[-68.8807,-29.59277],[-68.83059,-29.61579],[-68.69385,-29.60045],[-68.61514,-29.63974],[-68.33492,-29.67562],[-68.24567,-29.77609],[-68.19661,-29.78745],[-68.17449,-29.84706],[-68.10417,-29.84508],[-68.00526,-29.97047],[-67.69175,-30.18716],[-67.57728,-30.30717],[-67.55211,-30.40686],[-67.18064,-30.72196],[-67.07718,-30.88656],[-67.11731,-31.02031],[-67.06315,-31.08522],[-67.10102,-31.38689],[-67.05796,-31.54688],[-66.94701,-31.6372],[-66.87034,-31.63756],[-66.85348,-31.7779],[-66.76556,-31.81797],[-66.71631,-31.88658],[-67.38694,-31.87409],[-67.35703,-32.00183],[-67.38171,-32.1215],[-67.35767,-32.26305],[-67.28808,-32.35885],[-67.37016,-32.35845],[-67.45502,-32.30734],[-67.51188,-32.19743],[-67.54921,-32.21952],[-67.82227,-32.20917],[-67.91423,-32.15892],[-67.96426,-32.07398],[-68.0578,-32.06817],[-68.29084,-32.13565],[-68.46904,-32.10349],[-68.48899,-32.17751],[-68.6641,-32.33042],[-68.93249,-32.3229],[-68.93206,-32.09695],[-69.01743,-32.11123],[-69.15173,-31.96732],[-69.31837,-32.08904],[-69.42413,-32.0659],[-69.59536,-32.13921],[-69.62082,-32.23848],[-69.7125,-32.33392],[-69.68295,-32.48194],[-69.71628,-32.5309],[-69.80345,-32.53677],[-69.83534,-32.56902],[-69.98387,-32.539],[-70.0806,-32.63039],[-70.13262,-32.56708],[-70.14281,-32.46905],[-70.23968,-32.41451],[-70.2139,-32.3272],[-70.31481,-32.26418],[-70.31026,-32.13585],[-70.38321,-32.03973],[-70.29521,-32.0428],[-70.22182,-31.96709],[-70.29526,-31.88503],[-70.40567,-31.87785],[-70.46588,-31.83936],[-70.47688,-31.71222],[-70.5246,-31.6922],[-70.58213,-31.48908],[-70.54825,-31.3926],[-70.55988,-31.32169],[-70.52362,-31.1463],[-70.47525,-31.0869],[-70.40887,-31.1586],[-70.29022,-31.02356],[-70.33332,-30.90526],[-70.30561,-30.78407],[-70.23941,-30.70957],[-70.25709,-30.65797],[-70.19982,-30.50017],[-70.11178,-30.36927],[-69.98207,-30.39329],[-69.84192,-30.19418],[-69.84282,-30.12301],[-69.9812,-30.07896],[-69.89839,-29.92314],[-69.89926,-29.70806],[-69.96357,-29.6268],[-69.94991,-29.54325],[-70.01898,-29.37825],[-69.95244,-29.2453],[-69.95724,-29.19561],[-69.87554,-29.13312],[-69.79532,-29.14527],[-69.76576,-28.91833],[-69.71109,-28.77373],[-69.74909,-28.73626],[-69.74808,-28.6727],[-69.66297,-28.57723],[-69.66272,-28.37459]]]]}},{"type":"Feature","properties":{"id":"san_luis","name":"San Luis","area_km2":76366},"geometry":{"type":"MultiPolygon","coordinates":[[[[-65.7791,-31.8847],[-65.65595,-31.88444],[-65.29287,-32.05433],[-65.24932,-32.10825],[-65.2142,-32.32077],[-64.92958,-32.31782],[-64.93885,-32.43394],[-64.88757,-32.52865],[-64.88364,-32.57792],[-64.94165,-32.65682],[-64.92728,-32.70115],[-64.97808,-32.89648],[-65.0636,-33.09263],[-65.05311,-33.13954],[-65.14913,-33.20196],[-65.11065,-33.91203],[-65.1031,-35.99648],[-66.62697,-35.99846],[-66.63266,-35.90874],[-66.56004,-35.63928],[-66.57862,-35.59632],[-66.53995,-35.54678],[-66.50863,-35.3413],[-66.53955,-34.94838],[-66.65596,-34.74658],[-66.64019,-34.71477],[-66.75128,-34.58745],[-66.77349,-34.4251],[-66.80762,-34.39163],[-66.78536,-34.36264],[-66.81802,-34.33017],[-66.80202,-34.21649],[-66.74447,-34.19392],[-66.74077,-33.9491],[-66.82473,-33.89829],[-66.9009,-33.7582],[-67.001,-33.6929],[-67.01234,-33.60325],[-67.06371,-33.5745],[-67.15719,-33.43207],[-67.22065,-32.93531],[-67.19048,-32.76633],[-67.36808,-32.37543],[-67.28808,-32.35885],[-67.35767,-32.26305],[-67.38171,-32.1215],[-67.35703,-32.00183],[-67.38846,-31.87594],[-66.71399,-31.88666],[-66.56046,-31.97632],[-66.34349,-32.00199],[-66.30721,-31.94207],[-66.1541,-31.96996],[-66.12475,-31.94535],[-66.07611,-31.97229],[-65.95619,-31.88543],[-65.7791,-31.8847]]]]}},{"type":"Feature","properties":{"id":"santa_cruz","name":"Santa Cruz","area_km2":241936},"geometry":{"type":"MultiPolygon","coordinates":[[[[-71.65031,-46.00037],[-67.58927,-45.9977],[-67.63035,-46.09778],[-67.61847,-46.22468],[-67.42573,-46.55878],[-67.12815,-46.70032],[-66.77665,-47.01921],[-66.1912,-47.09278],[-65.98421,-47.07071],[-65.87958,-47.09955],[-65.7435,-47.19773],[-65.76965,-47.22162],[-65.72103,-47.33054],[-65.74384,-47.51331],[-65.84497,-47.74168],[-65.90499,-47.76175],[-65.85107,-47.89175],[-65.77954,-47.90542],[-65.8045,-47.92785],[-65.77611,-47.94323],[-65.94178,-47.94488],[-65.96053,-47.97591],[-65.93682,-48.01238],[-65.96147,-48.01738],[-65.94137,-48.02709],[-65.97874,-48.0503],[-65.91103,-48.08617],[-65.92075,-48.1125],[-66.11483,-48.11782],[-66.16062,-48.19512],[-66.33426,-48.2719],[-66.35734,-48.31154],[-66.33848,-48.35074],[-66.45236,-48.35096],[-66.48592,-48.40707],[-66.69967,-48.44431],[-66.8216,-48.52403],[-66.86006,-48.58463],[-67.04129,-48.62583],[-67.18546,-48.76204],[-67.21185,-48.83259],[-67.33008,-48.85597],[-67.55724,-49.03194],[-67.63447,-49.12748],[-67.60417,-49.18172],[-67.73071,-49.27405],[-67.70235,-49.31413],[-67.78497,-49.3213],[-67.77215,-49.37835],[-67.82374,-49.38339],[-67.70919,-49.38427],[-67.65732,-49.25286],[-67.60603,-49.2506],[-67.59778,-49.29864],[-67.69231,-49.52534],[-67.72237,-49.7703],[-67.89086,-49.98775],[-68.12381,-50.09634],[-68.33231,-50.11691],[-68.59739,-49.85782],[-68.55951,-49.94491],[-68.82351,-49.97535],[-68.55573,-49.97143],[-68.4752,-50.09579],[-68.35874,-50.15536],[-68.88823,-50.33189],[-69.00338,-50.44641],[-69.13553,-50.68074],[-69.14182,-50.913],[-69.22988,-50.98041],[-69.32217,-50.99576],[-69.42205,-51.08546],[-69.20267,-50.97776],[-69.16725,-50.98691],[-69.13176,-51.16861],[-68.95554,-51.55164],[-69.14037,-51.60312],[-69.3854,-51.55415],[-69.56628,-51.60937],[-69.27519,-51.59541],[-69.1569,-51.63797],[-69.20646,-51.68268],[-69.01605,-51.60528],[-68.97258,-51.61639],[-68.73573,-51.95172],[-68.3639,-52.31556],[-68.42941,-52.39481],[-68.42406,-52.32867],[-68.8454,-52.27097],[-69.19549,-52.14609],[-69.49468,-52.14506],[-70.0046,-51.99516],[-71.93044,-51.99524],[-71.9896,-51.93161],[-71.94588,-51.90664],[-71.9626,-51.855],[-72.19394,-51.70908],[-72.2859,-51.69999],[-72.32549,-51.58178],[-72.42542,-51.59421],[-72.41402,-51.52079],[-72.34525,-51.51567],[-72.35248,-51.48599],[-72.29916,-51.4555],[-72.33545,-51.4314],[-72.30981,-51.35398],[-72.3641,-51.32687],[-72.26188,-51.2698],[-72.2928,-51.20011],[-72.33769,-51.20023],[-72.40181,-51.12135],[-72.38445,-51.01657],[-72.27124,-51.02],[-72.26186,-50.82741],[-72.34773,-50.74481],[-72.29284,-50.65706],[-72.48827,-50.59924],[-72.60993,-50.6758],[-72.73376,-50.61276],[-72.89374,-50.66974],[-72.99944,-50.75721],[-73.25906,-50.81889],[-73.29824,-50.72567],[-73.27957,-50.67368],[-73.33137,-50.6403],[-73.30492,-50.57747],[-73.35328,-50.52774],[-73.48918,-50.4754],[-73.47739,-50.39866],[-73.52967,-50.36683],[-73.56638,-50.17659],[-73.51212,-50.04554],[-73.47104,-50.03394],[-73.46469,-49.96801],[-73.41472,-49.94829],[-73.5055,-49.85309],[-73.43047,-49.79644],[-73.40395,-49.73359],[-73.5151,-49.68785],[-73.4929,-49.61901],[-73.57248,-49.54058],[-73.51237,-49.49724],[-73.51312,-49.42781],[-73.43714,-49.31168],[-73.31006,-49.23152],[-73.17872,-49.25221],[-73.18329,-49.16951],[-73.10022,-49.11304],[-73.01637,-48.98305],[-72.95113,-48.94328],[-72.79335,-48.96075],[-72.57334,-48.81256],[-72.55197,-48.66682],[-72.61363,-48.48571],[-72.28042,-48.33105],[-72.27757,-48.28952],[-72.34863,-48.22353],[-72.31181,-48.16332],[-72.341,-48.05836],[-72.50081,-47.95095],[-72.51173,-47.89266],[-72.4467,-47.76914],[-72.36876,-47.7382],[-72.29164,-47.56612],[-72.33626,-47.44256],[-72.26009,-47.40449],[-72.13119,-47.40039],[-72.00169,-47.29369],[-72.01982,-47.1963],[-71.86762,-47.21738],[-71.8928,-47.18826],[-71.85523,-47.15768],[-71.86944,-47.11875],[-71.95395,-47.08376],[-71.88678,-47.01628],[-71.95733,-46.9496],[-71.9315,-46.86419],[-71.95491,-46.80531],[-71.7887,-46.77509],[-71.64947,-46.67216],[-71.67316,-46.52819],[-71.75757,-46.3424],[-71.72617,-46.27476],[-71.78072,-46.19349],[-71.86121,-46.19142],[-71.86414,-46.15185],[-71.914,-46.14103],[-71.72153,-46.085],[-71.65031,-46.00037]]]]}},{"type":"Feature","properties":{"id":"santa_fe","name":"Santa Fe","area_km2":132958},"geometry":{"type":"MultiPolygon","coordinates":[[[[-58.89356,-27.99876],[-58.8714,-28.03205],[-58.9118,-28.09853],[-59.0539,-28.12397],[-59.09783,-28.21093],[-59.10083,-28.34278],[-59.05748,-28.48241],[-59.11012,-28.60581],[-59.07772,-28.64411],[-59.16178,-28.7777],[-59.21277,-29.05816],[-59.32763,-29.09752],[-59.39967,-29.20931],[-59.49354,-29.22449],[-59.52597,-29.31755],[-59.60974,-29.40314],[-59.60356,-29.6463],[-59.63791,-29.69822],[-59.61877,-29.75377],[-59.68072,-29.83011],[-59.62455,-29.8823],[-59.56358,-30.02789],[-59.60007,-30.06046],[-59.62302,-30.22745],[-59.68859,-30.27586],[-59.65559,-30.32472],[-59.7089,-30.40472],[-59.65143,-30.51959],[-59.67292,-30.63166],[-59.62719,-30.69951],[-59.89064,-31.06006],[-59.96237,-31.11292],[-60.01587,-31.24319],[-60.09603,-31.28573],[-60.14143,-31.43745],[-60.24168,-31.51956],[-60.32882,-31.54644],[-60.32588,-31.60516],[-60.4287,-31.67679],[-60.57416,-31.6924],[-60.66922,-31.74205],[-60.6633,-31.90988],[-60.72446,-32.00435],[-60.68556,-32.01781],[-60.65891,-32.0801],[-60.73437,-32.1707],[-60.67465,-32.22403],[-60.67404,-32.30626],[-60.73661,-32.31144],[-60.71293,-32.40153],[-60.75737,-32.49636],[-60.74908,-32.61833],[-60.69617,-32.70812],[-60.71655,-32.76319],[-60.67437,-32.82603],[-60.67683,-32.9017],[-60.61157,-32.95139],[-60.52445,-33.1018],[-60.38624,-33.18346],[-60.31937,-33.17182],[-60.30256,-33.23617],[-60.25055,-33.25966],[-60.34104,-33.41426],[-60.40619,-33.45838],[-60.46019,-33.62611],[-60.54233,-33.64443],[-60.69173,-33.57556],[-60.86989,-33.54978],[-60.91703,-33.63613],[-61.7184,-34.37835],[-62.88998,-34.38382],[-61.92569,-33.12423],[-61.79157,-32.99788],[-61.79004,-32.79048],[-61.86561,-32.69725],[-61.95391,-32.67324],[-61.88813,-32.60648],[-61.92082,-32.58531],[-61.90191,-32.55561],[-61.92894,-32.53977],[-61.93218,-32.45838],[-62.04003,-32.25697],[-62.12802,-32.20781],[-62.19551,-32.11659],[-62.1768,-31.97215],[-62.23036,-31.88622],[-62.21567,-31.78099],[-62.25035,-31.70111],[-62.13266,-31.60803],[-61.83296,-30.67294],[-61.98325,-30.64573],[-61.97888,-30.59748],[-62.02419,-30.59181],[-62.12845,-30.48756],[-61.71784,-27.99333],[-58.89356,-27.99876]]]]}},{"type":"Feature","properties":{"id":"santiago_del_estero","name":"Santiago del Estero","area_km2":136764},"geometry":{"type":"MultiPolygon","coordinates":[[[[-64.4943,-26.23291],[-64.42988,-26.1042],[-64.4543,-26.07322],[-64.28804,-25.7196],[-64.04515,-25.7617],[-64.02989,-25.6954],[-63.47613,-25.70904],[-63.42833,-25.65126],[-61.71295,-25.6549],[-61.71784,-27.99333],[-62.12685,-30.47844],[-62.17801,-30.32984],[-62.52271,-30.32576],[-62.56376,-30.28992],[-62.59326,-30.17637],[-62.56063,-30.08179],[-62.76425,-29.93861],[-62.81139,-29.84166],[-62.78429,-29.8142],[-63.45263,-29.77534],[-63.45306,-29.72316],[-63.48402,-29.72218],[-63.46986,-29.66281],[-63.72353,-29.66281],[-63.77361,-29.64055],[-63.80793,-29.56942],[-63.86601,-29.5692],[-63.89335,-29.61708],[-63.96331,-29.61665],[-63.97787,-29.54545],[-64.33269,-29.50274],[-64.82854,-29.5624],[-64.83616,-29.43239],[-64.89249,-29.34251],[-64.8481,-29.31235],[-64.89107,-29.28007],[-64.82646,-29.12497],[-64.83309,-29.04572],[-64.9176,-28.87048],[-65.00376,-28.77062],[-65.13316,-28.71677],[-65.1449,-28.66566],[-65.18167,-28.65254],[-65.18193,-28.59998],[-65.12651,-28.60847],[-65.10019,-28.46888],[-65.11768,-28.19098],[-65.18819,-27.91454],[-65.15536,-27.8655],[-65.09424,-27.8902],[-65.05014,-27.87159],[-65.01513,-27.77061],[-64.96034,-27.759],[-65.04339,-27.58888],[-64.97863,-27.57006],[-64.97513,-27.51945],[-65.04162,-27.48679],[-64.99512,-27.33563],[-64.94752,-27.34728],[-64.87654,-27.31054],[-64.80234,-27.14771],[-64.72671,-26.82928],[-64.68877,-26.83445],[-64.67791,-26.78989],[-64.62362,-26.79745],[-64.59555,-26.66392],[-64.50212,-26.68309],[-64.5308,-26.42082],[-64.52109,-26.35671],[-64.47901,-26.3192],[-64.4943,-26.23291]]]]}},{"type":"Feature","properties":{"id":"tierra_del_fuego","name":"Tierra del Fuego","area_km2":20670},"geometry":{"type":"MultiPolygon","coordinates":[[[[-67.77464,-53.83416],[-67.6747,-53.79405],[-67.54308,-53.84078],[-67.57522,-53.85279],[-67.55556,-53.9073],[-67.30148,-54.0663],[-66.79057,-54.24494],[-66.55179,-54.41971],[-66.06742,-54.59562],[-65.81341,-54.63457],[-65.24782,-54.61516],[-65.26624,-54.65234],[-65.12109,-54.64939],[-65.19123,-54.67836],[-65.22485,-54.73635],[-65.20697,-54.77168],[-65.26668,-54.79003],[-65.23276,-54.81834],[-65.31556,-54.8522],[-65.31972,-54.90073],[-65.38415,-54.92793],[-65.41906,-54.92719],[-65.45347,-54.87611],[-65.50209,-54.91586],[-65.693,-54.95703],[-65.73281,-54.89122],[-65.98633,-54.89924],[-65.96507,-54.96149],[-66.38972,-54.98773],[-66.40708,-55.02229],[-66.52533,-55.04674],[-66.73492,-54.9985],[-66.7786,-54.95573],[-67.28879,-54.86595],[-67.40528,-54.88563],[-67.51978,-54.85055],[-67.69744,-54.88637],[-68.25126,-54.79595],[-68.3228,-54.80835],[-68.2694,-54.84165],[-68.30812,-54.85],[-68.32999,-54.83113],[-68.51505,-54.86109],[-68.57797,-54.82315],[-68.58183,-54.85249],[-68.51478,-54.87101],[-68.60599,-54.89665],[-68.61226,-52.65713],[-68.27679,-52.95807],[-68.20852,-53.13483],[-68.27818,-53.00893],[-68.36095,-53.01771],[-68.5323,-53.13923],[-68.55736,-53.24046],[-68.46037,-53.29789],[-68.13588,-53.33143],[-67.96032,-53.61377],[-67.69504,-53.77653],[-67.77464,-53.83416]]],[[[-63.87806,-54.7237],[-63.90184,-54.74278],[-63.81602,-54.71746],[-63.86522,-54.78006],[-63.97078,-54.80554],[-63.97227,-54.7584],[-64.24017,-54.84833],[-64.24718,-54.77666],[-64.31386,-54.77893],[-64.45905,-54.86425],[-64.50974,-54.84218],[-64.45436,-54.82938],[-64.50119,-54.82856],[-64.55241,-54.87904],[-64.66352,-54.90544],[-64.7129,-54.90369],[-64.65336,-54.88173],[-64.68636,-54.85419],[-64.67051,-54.83767],[-64.76257,-54.82836],[-64.69494,-54.77535],[-64.59706,-54.81003],[-64.53266,-54.79404],[-64.55433,-54.7181],[-64.42875,-54.76876],[-64.39941,-54.74253],[-64.37424,-54.79891],[-64.38684,-54.74375],[-64.35466,-54.71015],[-64.15093,-54.76247],[-64.16369,-54.72584],[-64.12581,-54.75618],[-64.06359,-54.72458],[-64.0623,-54.76866],[-64.0054,-54.72726],[-63.87806,-54.7237]]]]}},{"type":"Feature","properties":{"id":"tucuman","name":"Tucumán","area_km2":22638},"geometry":{"type":"MultiPolygon","coordinates":[[[[-66.08243,-26.21874],[-65.71172,-26.35587],[-65.6743,-26.11764],[-65.59648,-26.12359],[-65.54026,-26.08822],[-65.42961,-26.10969],[-65.34486,-26.07287],[-65.29236,-26.08803],[-65.26314,-26.19245],[-64.96313,-26.24025],[-64.95477,-26.28078],[-64.7874,-26.20318],[-64.49885,-26.22368],[-64.47901,-26.3192],[-64.52109,-26.35671],[-64.5308,-26.42082],[-64.50212,-26.68309],[-64.59555,-26.66392],[-64.62362,-26.79745],[-64.67791,-26.78989],[-64.68877,-26.83445],[-64.72671,-26.82928],[-64.80234,-27.14771],[-64.87654,-27.31054],[-64.94752,-27.34728],[-64.99512,-27.33563],[-65.04162,-27.48679],[-64.96763,-27.55262],[-65.04339,-27.58888],[-64.96034,-27.759],[-65.01513,-27.77061],[-65.05014,-27.87159],[-65.09424,-27.8902],[-65.15536,-27.8655],[-65.18417,-27.93488],[-65.36836,-27.84052],[-65.50185,-27.92276],[-65.5503,-28.00274],[-65.6609,-27.95896],[-65.75101,-27.77495],[-65.82548,-27.85298],[-65.86674,-27.68196],[-65.92096,-27.66715],[-65.96959,-27.54557],[-65.99029,-27.31205],[-66.14754,-27.24252],[-65.85947,-26.92803],[-65.89914,-26.84064],[-65.86156,-26.74794],[-66.0615,-26.61405],[-66.16316,-26.5869],[-66.14957,-26.40367],[-66.10408,-26.39485],[-66.08243,-26.21874]]]]}}],"metadata":{"crs":"EPSG:4326","origen":"jazzido/Polymaps-Argentina via estado-red-gas","simplificacion_grados":0.02,"aviso":"Contorno de contexto (~2 km). No usar para recortar ni medir superficies."}}